GLOBALSTAR M068         
1 32266U 07048D   25045.17231500 -.00000069  00000+0  19524-3 0  9992
2 32266  51.9904 317.2477 0000374 188.5994 320.4536 12.62815059802303
GLOBALSTAR M079         
1 37188U 10054A   25044.74982502 -.00000096  00000+0  44991-4 0  9995
2 37188  52.0032 155.5502 0000849  90.2725  64.7935 12.62270708660865
GLOBALSTAR M074         
1 37189U 10054B   25045.21842618 -.00000101  00000+0  16119-4 0  9990
2 37189  52.0007 153.4657 0000959 116.0831 248.7431 12.62262524661608
GLOBALSTAR M076         
1 37190U 10054C   25044.87803558 -.00000108  00000+0 -25669-4 0  9991
2 37190  52.0021 154.6588 0001121  99.8704  39.3956 12.62277508661560
GLOBALSTAR M077         
1 37191U 10054D   25044.54841400 -.00000067  00000+0  20579-3 0  9991
2 37191  52.0067 112.4867 0000650 118.5740  20.2013 12.62270834662275
GLOBALSTAR M075         
1 37192U 10054E   25044.70502736 -.00000117  00000+0 -71914-4 0  9993
2 37192  51.9926 197.5107 0001000 102.2272 270.7360 12.62272933660254
GLOBALSTAR M073         
1 37193U 10054F   25044.73617010 -.00000071  00000+0  18150-3 0  9999
2 37193  52.0056 111.1440 0000682 108.2993  44.4521 12.62263192662247
GLOBALSTAR M083         
1 37739U 11033A   25045.20775978 -.00000110  00000+0 -36919-4 0  9993
2 37739  51.9870  58.6040 0000249  87.8995 350.5116 12.62264560631684
GLOBALSTAR M088         
1 37740U 11033B   25044.48936705 -.00000076  00000+0  15461-3 0  9999
2 37740  51.9770 326.3890 0000312  34.5098 138.0047 12.62264082626772
GLOBALSTAR M091         
1 37741U 11033C   25045.13458064 -.00000069  00000+0  19472-3 0  9998
2 37741  51.9996 287.7623 0000700  52.2378 112.7714 12.62264719627909
GLOBALSTAR M085         
1 37742U 11033D   25045.04495950 -.00000097  00000+0  35446-4 0  9995
2 37742  51.9842 239.1807 0000863  74.5747 102.9290 12.62265489628638
GLOBALSTAR M081         
1 37743U 11033E   25045.06558381 -.00000093  00000+0  57405-4 0  9991
2 37743  51.9933 241.8275 0001062  72.5735  79.6186 12.62260768628679
GLOBALSTAR M089         
1 37744U 11033F   25044.94687354 -.00000111  00000+0 -37816-4 0  9997
2 37744  51.9910 196.4393 0001174 103.0792  48.7106 12.62266256629126
GLOBALSTAR M084         
1 38040U 11080A   25044.48643639 -.00000083  00000+0  11600-3 0  9995
2 38040  52.0010  65.0619 0000692 117.8000  41.1231 12.62262120607049
GLOBALSTAR M080         
1 38041U 11080B   25045.23496134 -.00000085  00000+0  10734-3 0  9995
2 38041  52.0063  64.3506 0000875 104.8076 334.8241 12.62277026607401
GLOBALSTAR M082         
1 38042U 11080C   25044.91928687 -.00000101  00000+0  14092-4 0  9994
2 38042  52.0095  20.7407 0000208 317.6631  68.9972 12.62272991607934
GLOBALSTAR M092         
1 38043U 11080D   25044.75876133 -.00000079  00000+0  13914-3 0  9990
2 38043  52.0079 111.6005 0000659 127.7808   9.0776 12.62272948606576
GLOBALSTAR M090         
1 38044U 11080E   25044.66110160 -.00000105  00000+0 -89236-5 0  9995
2 38044  51.9907  15.4954 0000272  45.6613 126.2935 12.62266629608011
GLOBALSTAR M086         
1 38045U 11080F   25045.22663041 -.00000095  00000+0  50196-4 0  9999
2 38045  51.9919  14.3144 0001220  55.2701  48.2193 12.62266585608136
GLOBALSTAR M097         
1 39072U 13005A   25044.35953006 -.00000067  00000+0  20581-3 0  9998
2 39072  52.0051 291.3809 0000890  58.7841 301.3113 12.62269924555176
GLOBALSTAR M093         
1 39073U 13005B   25045.12437094 -.00000067  00000+0  20648-3 0  9993
2 39073  51.9807 282.5482 0000899  59.3417 300.7538 12.62261597555349
GLOBALSTAR M094         
1 39074U 13005C   25044.96641723 -.00000122  00000+0 -10029-3 0  9996
2 39074  51.9937 197.2872 0000932  79.8788 280.2183 12.62268293556838
GLOBALSTAR M096         
1 39075U 13005D   25044.90048207 -.00000086  00000+0  99292-4 0  9997
2 39075  52.0050 245.9088 0000907  66.0644 294.0318 12.62268436555727
GLOBALSTAR M078         
1 39076U 13005E   25045.11093488 -.00000050  00000+0  29743-3 0  9997
2 39076  51.9897 329.9408 0000483 291.2942  68.7873 12.62272287554580
GLOBALSTAR M095         
1 39077U 13005F   25044.50436278 -.00000074  00000+0  16787-3 0  9998
2 39077  51.9823 329.0496 0000558   3.9118 356.1752 12.62266232554150
GLOBALSTAR M087         
1 52888U 22064A   25044.69344606 -.00000071  00000+0  18122-3 0  9993
2 52888  51.9789 109.8789 0000424 117.2697 242.8213 12.62268562129449
